OBJECT_NAME,OBJECT_ID,EPOCH,MEAN_MOTION,ECCENTRICITY,INCLINATION,RA_OF_ASC_NODE,ARG_OF_PERICENTER,MEAN_ANOMALY,EPHEMERIS_TYPE,CLASSIFICATION_TYPE,NORAD_CAT_ID,ELEMENT_SET_NO,REV_AT_EPOCH,BSTAR,MEAN_MOTION_DOT,MEAN_MOTION_DDOT
QIANFAN-140,2026-104P,2026-07-03T21:00:18.579456,13.67364324,.00070413,88.9877,339.7955,88.6728,271.5239,0,U,69086,999,739,-.24233114E+1,-.1891819E-1,0
QIANFAN-141,2026-104Q,2026-07-03T21:40:39.496224,13.72725803,.00082758,88.9882,339.7799,30.0333,330.1304,0,U,69087,999,740,-.22124936E+1,-.1885995E-1,0
QIANFAN-142,2026-104R,2026-07-03T20:57:44.350272,13.73928316,.00111125,88.9876,339.7745,18.4828,341.6737,0,U,69088,999,740,-.2145159E+1,-.186697E-1,0
QIANFAN-143,2026-104S,2026-07-03T17:26:50.451648,13.71944778,.00081619,88.9885,339.7844,32.8047,327.3621,0,U,69089,999,738,-.24847853E+1,-.2099461E-1,0
QIANFAN-144,2026-104T,2026-07-03T21:21:57.932640,13.69488064,.0007941,88.9876,339.7776,66.2372,293.9622,0,U,69090,999,740,-.23726302E+1,-.1936084E-1,0
ZHUQUE-2E R/B,2026-105A,2026-07-04T07:53:08.556864,15.20739425,.0433874,88.9687,191.9157,232.5903,123.5116,0,U,69095,999,775,.37022421E-3,.158445E-2,-.632574E-6
2026-106A,2026-106A,2026-07-04T03:54:15.323040,15.11414794,.00156916,97.5092,266.9440,108.0659,252.2282,0,U,69097,999,754,.54810406E-3,.9227E-4,0
2026-106B,2026-106B,2026-07-04T04:45:39.187872,15.09772620,.00163644,97.5072,266.8867,103.3378,256.9677,0,U,69098,999,754,.30739689E-3,.4916E-4,0
2026-106C,2026-106C,2026-07-04T03:52:17.045760,15.11458995,.00155058,97.5096,266.9482,108.9426,251.3487,0,U,69099,999,754,.52981586E-3,.8927E-4,0
2026-106D,2026-106D,2026-07-04T03:49:20.599680,15.11329192,.00155159,97.5074,266.9353,110.3954,249.8944,0,U,69100,999,754,.12703354E-3,.2082E-4,0
2026-106E,2026-106E,2026-07-04T05:12:38.913984,15.11617885,.00184022,97.5074,267.0129,112.0952,248.2234,0,U,69101,999,755,.62087372E-3,.10533E-3,0
QIANFAN-145,2026-108A,2026-07-03T15:16:39.321408,13.78237415,.0016636,89.0094,20.4650,52.8917,307.3767,0,U,69104,999,662,-.19385418E+1,-.1816879E-1,0
QIANFAN-146,2026-108B,2026-07-03T19:07:39.031392,13.91561630,.00158327,89.0102,20.3817,58.3231,301.9484,0,U,69105,999,668,-.14799996E+1,-.1744354E-1,0
QIANFAN-147,2026-108C,2026-07-03T19:32:26.164608,13.76141670,.00141775,89.0099,20.4360,61.5180,298.7411,0,U,69106,999,665,-.20570948E+1,-.1858295E-1,0
QIANFAN-148,2026-108D,2026-07-03T19:40:50.833920,13.77845219,.00201733,89.0090,20.4355,61.1685,299.1503,0,U,69107,999,665,-.21552634E+1,-.2016101E-1,0
QIANFAN-149,2026-108E,2026-07-03T20:10:49.827936,13.74253194,.00172601,89.0097,20.4400,69.1101,291.1909,0,U,69108,999,665,-.21440194E+1,-.187649E-1,0
QIANFAN-150,2026-108F,2026-07-03T20:00:30.023712,13.80298129,.00214762,89.0097,20.4221,47.1063,313.1903,0,U,69109,999,666,-.19875759E+1,-.1942459E-1,0
QIANFAN-151,2026-108G,2026-07-03T18:55:19.202016,13.76834500,.00149375,89.0097,20.4333,60.3609,299.9042,0,U,69110,999,665,-.18767744E+1,-.1724364E-1,0
QIANFAN-152,2026-108H,2026-07-03T19:58:29.901792,13.78499446,.00177792,89.0095,20.4210,58.0434,302.2458,0,U,69111,999,666,-.2034302E+1,-.1928921E-1,0
QIANFAN-153,2026-108J,2026-07-03T17:02:54.791232,13.75621888,.00182372,89.0087,20.4368,46.7694,313.4990,0,U,69112,999,664,-.21336634E+1,-.1928562E-1,0
QIANFAN-154,2026-108K,2026-07-03T16:49:19.394688,13.74443656,.00173367,89.0101,20.4394,38.3107,321.9285,0,U,69113,999,664,-.21272567E+1,-.1868313E-1,0
QIANFAN-155,2026-108L,2026-07-03T20:01:21.361728,13.78799599,.00193642,89.0099,20.4223,55.5134,304.7859,0,U,69114,999,666,-.20250364E+1,-.1930144E-1,0
QIANFAN-156,2026-108M,2026-07-03T18:47:16.067040,13.80534473,.00228281,89.0106,20.4178,46.6585,313.6480,0,U,69115,999,666,-.19401756E+1,-.1906456E-1,0
QIANFAN-157,2026-108N,2026-07-03T19:59:27.349152,13.85776039,.00202164,89.0089,20.3840,63.7680,296.5566,0,U,69116,999,668,-.17503009E+1,-.186033E-1,0
QIANFAN-158,2026-108P,2026-07-03T17:39:15.309504,13.82743500,.00252761,89.0094,20.4078,59.5143,300.8517,0,U,69117,999,666,-.19111799E+1,-.1947379E-1,0
QIANFAN-159,2026-108Q,2026-07-03T19:55:45.111936,13.79355853,.00202195,89.0089,20.3998,52.6340,307.6664,0,U,69118,999,667,-.19879356E+1,-.1913823E-1,0
QIANFAN-160,2026-108R,2026-07-03T20:12:13.074336,13.77089245,.00175092,89.0097,20.4053,65.9578,294.3418,0,U,69119,999,667,-.208883E+1,-.1934135E-1,0
QIANFAN-161,2026-108S,2026-07-04T03:05:50.974944,13.90035787,.00179669,89.0106,20.3570,57.9913,302.3003,0,U,69120,999,672,.24145555E-4,.43E-6,0
QIANFAN-162,2026-108T,2026-07-03T18:52:28.258752,13.81927986,.00222168,89.0095,20.3955,49.1916,311.1175,0,U,69121,999,667,-.18655172E+1,-.1858468E-1,0
SMILE,2026-109A,2026-06-07T09:11:54.544416,7.54049028,.3310191,69.9787,209.3069,288.5544,45.7342,0,U,69123,999,248,-.36778157E-3,-.41E-6,0
