QIANFAN-140             
1 69086U 26104P   26184.87521504 -.01891819  00000+0 -24233+1 0  9997
2 69086  88.9877 339.7955 0007041  88.6728 271.5239 13.67364324  7397
QIANFAN-141             
1 69087U 26104Q   26184.90323491 -.01885995  00000+0 -22125+1 0  9993
2 69087  88.9882 339.7799 0008275  30.0333 330.1304 13.72725803  7409
QIANFAN-142             
1 69088U 26104R   26184.87342998 -.01866970  00000+0 -21452+1 0  9997
2 69088  88.9876 339.7745 0011112  18.4828 341.6737 13.73928316  7409
QIANFAN-143             
1 69089U 26104S   26184.72697282 -.02099461  00000+0 -24848+1 0  9997
2 69089  88.9885 339.7844 0008161  32.8047 327.3621 13.71944778  7381
QIANFAN-144             
1 69090U 26104T   26184.89025385 -.01936084  00000+0 -23726+1 0  9990
2 69090  88.9876 339.7776 0007941  66.2372 293.9622 13.69488064  7404
ZHUQUE-2E R/B           
1 69095U 26105A   26185.32857126  .00158445 -63257-6  37022-3 0  9993
2 69095  88.9687 191.9157 0433874 232.5903 123.5116 15.20739425  7759
2026-106A               
1 69097U 26106A   26185.16267735  .00009227  00000+0  54810-3 0  9995
2 69097  97.5092 266.9440 0015691 108.0659 252.2282 15.11414794  7543
2026-106B               
1 69098U 26106B   26185.19837023  .00004916  00000+0  30740-3 0  9998
2 69098  97.5072 266.8867 0016364 103.3378 256.9677 15.09772620  7549
2026-106C               
1 69099U 26106C   26185.16130840  .00008927  00000+0  52982-3 0  9997
2 69099  97.5096 266.9482 0015505 108.9426 251.3487 15.11458995  7548
2026-106D               
1 69100U 26106D   26185.15926620  .00002082  00000+0  12703-3 0  9991
2 69100  97.5074 266.9353 0015515 110.3954 249.8944 15.11329192  7544
2026-106E               
1 69101U 26106E   26185.21711706  .00010533  00000+0  62087-3 0  9996
2 69101  97.5074 267.0129 0018402 112.0952 248.2234 15.11617885  7558
QIANFAN-145             
1 69104U 26108A   26184.63656622 -.01816879  00000+0 -19385+1 0  9991
2 69104  89.0094  20.4650 0016636  52.8917 307.3767 13.78237415  6621
QIANFAN-146             
1 69105U 26108B   26184.79697953 -.01744354  00000+0 -14800+1 0  9996
2 69105  89.0102  20.3817 0015832  58.3231 301.9484 13.91561630  6689
QIANFAN-147             
1 69106U 26108C   26184.81419172 -.01858295  00000+0 -20571+1 0  9997
2 69106  89.0099  20.4360 0014177  61.5180 298.7411 13.76141670  6650
QIANFAN-148             
1 69107U 26108D   26184.82003280 -.02016101  00000+0 -21553+1 0  9992
2 69107  89.0090  20.4355 0020173  61.1685 299.1503 13.77845219  6653
QIANFAN-149             
1 69108U 26108E   26184.84085449 -.01876490  00000+0 -21440+1 0  9991
2 69108  89.0097  20.4400 0017260  69.1101 291.1909 13.74253194  6650
QIANFAN-150             
1 69109U 26108F   26184.83368083 -.01942459  00000+0 -19876+1 0  9998
2 69109  89.0097  20.4221 0021476  47.1063 313.1903 13.80298129  6663
QIANFAN-151             
1 69110U 26108G   26184.78841669 -.01724364  00000+0 -18768+1 0  9992
2 69110  89.0097  20.4333 0014937  60.3609 299.9042 13.76834500  6654
QIANFAN-152             
1 69111U 26108H   26184.83229053 -.01928921  00000+0 -20343+1 0  9993
2 69111  89.0095  20.4210 0017779  58.0434 302.2458 13.78499446  6662
QIANFAN-153             
1 69112U 26108J   26184.71035638 -.01928562  00000+0 -21337+1 0  9990
2 69112  89.0087  20.4368 0018237  46.7694 313.4990 13.75621888  6647
QIANFAN-154             
1 69113U 26108K   26184.70091892 -.01868313  00000+0 -21273+1 0  9990
2 69113  89.0101  20.4394 0017336  38.3107 321.9285 13.74443656  6644
QIANFAN-155             
1 69114U 26108L   26184.83427502 -.01930144  00000+0 -20250+1 0  9992
2 69114  89.0099  20.4223 0019364  55.5134 304.7859 13.78799599  6668
QIANFAN-156             
1 69115U 26108M   26184.78282485 -.01906456  00000+0 -19402+1 0  9992
2 69115  89.0106  20.4178 0022828  46.6585 313.6480 13.80534473  6667
QIANFAN-157             
1 69116U 26108N   26184.83295543 -.01860330  00000+0 -17503+1 0  9998
2 69116  89.0089  20.3840 0020216  63.7680 296.5566 13.85776039  6685
QIANFAN-158             
1 69117U 26108P   26184.73559386 -.01947379  00000+0 -19112+1 0  9993
2 69117  89.0094  20.4078 0025276  59.5143 300.8517 13.82743500  6661
QIANFAN-159             
1 69118U 26108Q   26184.83038324 -.01913823  00000+0 -19879+1 0  9996
2 69118  89.0089  20.3998 0020219  52.6340 307.6664 13.79355853  6676
QIANFAN-160             
1 69119U 26108R   26184.84181799 -.01934135  00000+0 -20888+1 0  9994
2 69119  89.0097  20.4053 0017509  65.9578 294.3418 13.77089245  6673
QIANFAN-161             
1 69120U 26108S   26185.12906221  .00000043  00000+0  24146-4 0  9997
2 69120  89.0106  20.3570 0017966  57.9913 302.3003 13.90035787  6723
QIANFAN-162             
1 69121U 26108T   26184.78643818 -.01858468  00000+0 -18655+1 0  9998
2 69121  89.0095  20.3955 0022216  49.1916 311.1175 13.81927986  6671
SMILE                   
1 69123U 26109A   26158.38327019 -.00000041  00000+0 -36778-3 0  9994
2 69123  69.9787 209.3069 3310191 288.5544  45.7342  7.54049028  2480
